{
  "type": "FeatureCollection",
  "features": [
    {
      "type": "Feature",
      "properties": {
        "norad_id": 32275,
        "name": "COSMOS 2433 (720)",
        "group": "glo-ops",
        "lat": 60.41006184189039,
        "lon": 88.9300187543002,
        "alt_km": 19134.375410382876,
        "timestamp": "2025-12-27T18:38:03.739134+00:00",
        "meta_object_name": "COSMOS 2433 (720)",
        "meta_object_id": "2007-052A",
        "meta_epoch": "2025-12-26T05:29:12.755904",
        "meta_mean_motion": 2.13104171,
        "meta_eccentricity": 0.0005081,
        "meta_inclination": 65.6759,
        "meta_ra_of_asc_node": 321.753,
        "meta_arg_of_pericenter": 257.4758,
        "meta_mean_anomaly": 102.4712,
        "meta_ephemeris_type": 0,
        "meta_classification_type": "U",
        "meta_norad_cat_id": 32275,
        "meta_element_set_no": 999,
        "meta_rev_at_epoch": 14137,
        "meta_bstar": 0,
        "meta_mean_motion_dot": -3.3e-07,
        "meta_mean_motion_ddot": 0,
        "tle_line1": "1 32275U 07052A   25360.22861986 -.00000033  00000+0  00000+0 0  9996",
        "tle_line2": "2 32275  65.6759 321.7530 0005081 257.4758 102.4712  2.13104171141375"
      },
      "geometry": {
        "type": "Point",
        "coordinates": [
          88.9300187543002,
          60.41006184189039
        ]
      }
    },
    {
      "type": "Feature",
      "properties": {
        "norad_id": 32276,
        "name": "COSMOS 2432 (719)",
        "group": "glo-ops",
        "lat": 45.85234858470517,
        "lon": -10.453425466408293,
        "alt_km": 19127.8727974758,
        "timestamp": "2025-12-27T18:38:03.739160+00:00",
        "meta_object_name": "COSMOS 2432 (719)",
        "meta_object_id": "2007-052B",
        "meta_epoch": "2025-12-27T06:49:58.250208",
        "meta_mean_motion": 2.13103316,
        "meta_eccentricity": 0.0011433,
        "meta_inclination": 65.6913,
        "meta_ra_of_asc_node": 321.8424,
        "meta_arg_of_pericenter": 315.4046,
        "meta_mean_anomaly": 79.1571,
        "meta_ephemeris_type": 0,
        "meta_classification_type": "U",
        "meta_norad_cat_id": 32276,
        "meta_element_set_no": 999,
        "meta_rev_at_epoch": 14142,
        "meta_bstar": 0,
        "meta_mean_motion_dot": -3.6e-07,
        "meta_mean_motion_ddot": 0,
        "tle_line1": "1 32276U 07052B   25361.28470197 -.00000036  00000+0  00000+0 0  9997",
        "tle_line2": "2 32276  65.6913 321.8424 0011433 315.4046  79.1571  2.13103316141423"
      },
      "geometry": {
        "type": "Point",
        "coordinates": [
          -10.453425466408293,
          45.85234858470517
        ]
      }
    },
    {
      "type": "Feature",
      "properties": {
        "norad_id": 32393,
        "name": "COSMOS 2434 (721)",
        "group": "glo-ops",
        "lat": -1.9448235001819307,
        "lon": -163.23783716748295,
        "alt_km": 19127.4104105661,
        "timestamp": "2025-12-27T18:38:03.739175+00:00",
        "meta_object_name": "COSMOS 2434 (721)",
        "meta_object_id": "2007-065A",
        "meta_epoch": "2025-12-27T02:08:22.083936",
        "meta_mean_motion": 2.13101378,
        "meta_eccentricity": 0.0004806,
        "meta_inclination": 64.316,
        "meta_ra_of_asc_node": 197.7187,
        "meta_arg_of_pericenter": 72.1868,
        "meta_mean_anomaly": 118.5002,
        "meta_ephemeris_type": 0,
        "meta_classification_type": "U",
        "meta_norad_cat_id": 32393,
        "meta_element_set_no": 999,
        "meta_rev_at_epoch": 14010,
        "meta_bstar": 0,
        "meta_mean_motion_dot": 1.2e-06,
        "meta_mean_motion_ddot": 0,
        "tle_line1": "1 32393U 07065A   25361.08914449  .00000120  00000+0  00000+0 0  9995",
        "tle_line2": "2 32393  64.3160 197.7187 0004806  72.1868 118.5002  2.13101378140101"
      },
      "geometry": {
        "type": "Point",
        "coordinates": [
          -163.23783716748295,
          -1.9448235001819307
        ]
      }
    },
    {
      "type": "Feature",
      "properties": {
        "norad_id": 32395,
        "name": "COSMOS 2436 (723)",
        "group": "glo-ops",
        "lat": 42.74202091295395,
        "lon": -8.634929775265311,
        "alt_km": 19148.29950897374,
        "timestamp": "2025-12-27T18:38:03.739188+00:00",
        "meta_object_name": "COSMOS 2436 (723)",
        "meta_object_id": "2007-065C",
        "meta_epoch": "2025-12-26T09:51:08.082144",
        "meta_mean_motion": 2.13100172,
        "meta_eccentricity": 0.0017813,
        "meta_inclination": 64.3246,
        "meta_ra_of_asc_node": 197.8121,
        "meta_arg_of_pericenter": 10.2944,
        "meta_mean_anomaly": 152.7871,
        "meta_ephemeris_type": 0,
        "meta_classification_type": "U",
        "meta_norad_cat_id": 32395,
        "meta_element_set_no": 999,
        "meta_rev_at_epoch": 14004,
        "meta_bstar": 0,
        "meta_mean_motion_dot": 1.14e-06,
        "meta_mean_motion_ddot": 0,
        "tle_line1": "1 32395U 07065C   25360.41051021  .00000114  00000+0  00000+0 0  9994",
        "tle_line2": "2 32395  64.3246 197.8121 0017813  10.2944 152.7871  2.13100172140045"
      },
      "geometry": {
        "type": "Point",
        "coordinates": [
          -8.634929775265311,
          42.74202091295395
        ]
      }
    },
    {
      "type": "Feature",
      "properties": {
        "norad_id": 36111,
        "name": "COSMOS 2456 (730)",
        "group": "glo-ops",
        "lat": 22.41615123541985,
        "lon": -114.29362029844462,
        "alt_km": 19134.551808670796,
        "timestamp": "2025-12-27T18:38:03.739201+00:00",
        "meta_object_name": "COSMOS 2456 (730)",
        "meta_object_id": "2009-070A",
        "meta_epoch": "2025-12-27T04:41:41.219808",
        "meta_mean_motion": 2.13103691,
        "meta_eccentricity": 0.00037027,
        "meta_inclination": 64.9075,
        "meta_ra_of_asc_node": 76.844,
        "meta_arg_of_pericenter": 295.0065,
        "meta_mean_anomaly": 134.5252,
        "meta_ephemeris_type": 0,
        "meta_classification_type": "U",
        "meta_norad_cat_id": 36111,
        "meta_element_set_no": 999,
        "meta_rev_at_epoch": 12476,
        "meta_bstar": 0,
        "meta_mean_motion_dot": -1.5e-07,
        "meta_mean_motion_ddot": 0,
        "tle_line1": "1 36111U 09070A   25361.19561597 -.00000015  00000+0  00000+0 0  9993",
        "tle_line2": "2 36111  64.9075  76.8440 0003702 295.0065 134.5252  2.13103691124761"
      },
      "geometry": {
        "type": "Point",
        "coordinates": [
          -114.29362029844462,
          22.41615123541985
        ]
      }
    },
    {
      "type": "Feature",
      "properties": {
        "norad_id": 36112,
        "name": "COSMOS 2457 (733)",
        "group": "glo-ops",
        "lat": -61.42685604286003,
        "lon": 17.393705199842774,
        "alt_km": 19141.886218452066,
        "timestamp": "2025-12-27T18:38:03.739213+00:00",
        "meta_object_name": "COSMOS 2457 (733)",
        "meta_object_id": "2009-070B",
        "meta_epoch": "2025-12-27T08:55:10.742304",
        "meta_mean_motion": 2.13101028,
        "meta_eccentricity": 0.0004359,
        "meta_inclination": 64.8931,
        "meta_ra_of_asc_node": 76.6852,
        "meta_arg_of_pericenter": 164.6643,
        "meta_mean_anomaly": 168.9221,
        "meta_ephemeris_type": 0,
        "meta_classification_type": "U",
        "meta_norad_cat_id": 36112,
        "meta_element_set_no": 999,
        "meta_rev_at_epoch": 12476,
        "meta_bstar": 0,
        "meta_mean_motion_dot": -1.6e-07,
        "meta_mean_motion_ddot": 0,
        "tle_line1": "1 36112U 09070B   25361.37165211 -.00000016  00000+0  00000+0 0  9998",
        "tle_line2": "2 36112  64.8931  76.6852 0004359 164.6643 168.9221  2.13101028124768"
      },
      "geometry": {
        "type": "Point",
        "coordinates": [
          17.393705199842774,
          -61.42685604286003
        ]
      }
    },
    {
      "type": "Feature",
      "properties": {
        "norad_id": 36402,
        "name": "COSMOS 2460 (732)",
        "group": "glo-ops",
        "lat": -62.08401994889271,
        "lon": -98.98288518832872,
        "alt_km": 19129.74100350967,
        "timestamp": "2025-12-27T18:38:03.739225+00:00",
        "meta_object_name": "COSMOS 2460 (732)",
        "meta_object_id": "2010-007C",
        "meta_epoch": "2025-12-27T01:42:51.563232",
        "meta_mean_motion": 2.13106312,
        "meta_eccentricity": 0.00024726,
        "meta_inclination": 65.5217,
        "meta_ra_of_asc_node": 320.2897,
        "meta_arg_of_pericenter": 284.8889,
        "meta_mean_anomaly": 178.0863,
        "meta_ephemeris_type": 0,
        "meta_classification_type": "U",
        "meta_norad_cat_id": 36402,
        "meta_element_set_no": 999,
        "meta_rev_at_epoch": 12306,
        "meta_bstar": 0,
        "meta_mean_motion_dot": -3.6e-07,
        "meta_mean_motion_ddot": 0,
        "tle_line1": "1 36402U 10007C   25361.07143013 -.00000036  00000+0  00000+0 0  9997",
        "tle_line2": "2 36402  65.5217 320.2897 0002472 284.8889 178.0863  2.13106312123060"
      },
      "geometry": {
        "type": "Point",
        "coordinates": [
          -98.98288518832872,
          -62.08401994889271
        ]
      }
    }
  ]
}